{"fetched_at":"2026-07-18T06:28:04.122Z","source":"https://celestrak.org/NORAD/elements/gp.php?NAME=FIREFLY&FORMAT=JSON","constellation":"pixxel","records":[{"OBJECT_NAME":"FIREFLY-1","OBJECT_ID":"2025-009CW","EPOCH":"2026-07-17T22:17:01.044384","CLASSIFICATION_TYPE":"U","MEAN_MOTION":14.92744296,"ECCENTRICITY":0.00027973,"INCLINATION":97.706,"RA_OF_ASC_NODE":276.4203,"ARG_OF_PERICENTER":211.0936,"MEAN_ANOMALY":149.0119,"EPHEMERIS_TYPE":0,"NORAD_CAT_ID":62701,"ELEMENT_SET_NO":999,"REV_AT_EPOCH":8190,"BSTAR":0.000036040894,"MEAN_MOTION_DOT":0.00000317,"MEAN_MOTION_DDOT":0},{"OBJECT_NAME":"FIREFLY-2","OBJECT_ID":"2025-009CZ","EPOCH":"2026-07-17T21:45:12.926304","CLASSIFICATION_TYPE":"U","MEAN_MOTION":14.92738974,"ECCENTRICITY":0.00061546,"INCLINATION":97.7017,"RA_OF_ASC_NODE":276.1668,"ARG_OF_PERICENTER":353.8004,"MEAN_ANOMALY":6.3138,"EPHEMERIS_TYPE":0,"NORAD_CAT_ID":62704,"ELEMENT_SET_NO":999,"REV_AT_EPOCH":8190,"BSTAR":0.0000636613,"MEAN_MOTION_DOT":0.00000602,"MEAN_MOTION_DDOT":0},{"OBJECT_NAME":"FIREFLY-3","OBJECT_ID":"2025-009DF","EPOCH":"2026-07-17T22:50:03.553728","CLASSIFICATION_TYPE":"U","MEAN_MOTION":14.92803215,"ECCENTRICITY":0.0004646,"INCLINATION":97.7051,"RA_OF_ASC_NODE":276.4723,"ARG_OF_PERICENTER":67.222,"MEAN_ANOMALY":292.949,"EPHEMERIS_TYPE":0,"NORAD_CAT_ID":62710,"ELEMENT_SET_NO":999,"REV_AT_EPOCH":8192,"BSTAR":0.000067908267,"MEAN_MOTION_DOT":0.00000647,"MEAN_MOTION_DDOT":0}]}
