FIREFLY-1               
1 62701U 25009CW  26198.92848431  .00000317  00000+0  36041-4 0  9995
2 62701  97.7060 276.4203 0002797 211.0936 149.0119 14.92744296 81909
FIREFLY-2               
1 62704U 25009CZ  26198.90639961  .00000602  00000+0  63661-4 0  9997
2 62704  97.7017 276.1668 0006154 353.8004   6.3138 14.92738974 81900
FIREFLY-3               
1 62710U 25009DF  26198.95143002  .00000647  00000+0  67908-4 0  9992
2 62710  97.7051 276.4723 0004646  67.2220 292.9490 14.92803215 81927
